school,Street,URI,Email,Religion,School Cluster,Postal Code,NTG Geographic Definition,Type,Fax Number,,,Enrolment,Telephone Number,Suburb,Postal Address,State
Acacia Hill School,80 Spearwood Rd,,acaciahill.school@ntschools.net,Government,Central Storm,871,Provincial,Special Purpose School,(08) 8953 4063,,,38,(08) 8952 6277,Alice Springs,"PO Box 435, Alice Springs",NT
Adelaide River School,31 Memorial Tce,http://www.schools.nt.edu.au/tegs/adelriv/adel.htm,adelaideriver.ps@ntschools.net,Government,Palmerston & Rural,846,Remote,Group School,(08) 8976 7074,,,43,(08) 8976 7034,Adelaide River,"PO Box 5, Adelaide River",NT
Alawa Pre School,27 Pett St,,,,,,,Pre School,(08) 8927 1695,,,0,(08) 8927 9122,Alawa,,
Alawa Primary School,27 Pett St,http://www.schools.nt.edu.au/alawa/,alawa.school@ntschools.net,Government,Darwin City,811,Provincial,Primary School,(08) 8927 1695,,,213,(08) 8927 9122,Alawa,"PO Box 40446, Casuarina",NT
Alcoota School,,,ann.roberts@ntschools.net,Government,Desert Oaks,872,Very Remote,Group School,(08) 8956 9977,,,66,(08) 8956 9977,Engawala (Alcoota Stn),"PMB 129, via ALICE SPRINGS",NT
Alekarenge School,,,admin.alekacec@ntschools.net,Government,Central Storm,872,Very Remote,Group School,(08) 8964 1969,,,147,(08) 8964 1957,Ali Curung (Warrabri),"Ali Curung, LMB 161, via Alice Springs",NT
Alice Springs High School,56 Milner Rd,,contact.ashs@ntschools.net,Government,Desert Oaks,871,Remote,Middle School,(08) 8952 6614,,,237,(08) 8950 2500,Alice Springs,"PO Box 1771, Alice Springs",NT
Alice Springs Lanuages Centre,,,,Government,,,,Open Learning Centre,,,,0,(08) 89525544,,c/o Anzac Hill High,
Alice Springs School Of The Air,80 Head St,http://www.assoa.nt.edu.au/,assoa@assoa.nt.edu.au,Government,Desert Oaks,871,Remote,Open Learning Centre,(08) 8951 6835,,,78,(08) 8951 6800,Alice Springs,"PO Box 1220, Alice Springs",NT
Alice Springs Steiner School,,http://www.alicesteiner.nt.edu.au/,office@alicesteiner.nt.edu.au,Independant,Desert Oaks,871,Remote,Primary School,(08) 89523897,,,79,(08) 89534578,,"PO Box 2736, Alice Springs",NT
Alpurrurulam School,,,ross.forbes@ntschools.net,Government,Central Storm,4825,Very Remote,Group School,(07) 4748 4887,,,97,(07) 4748 4887,Alpurrurulam (Lake Nash),"PMB 46, Mt Isa",QLD
Alyangula Area School,Cnr Flinders St & Ayawarra Cr,http://www.alyangula.com/,alyangula.admin@ntschools.net,Government,Arnhem,885,Very Remote,Area School,(08) 8987 6014,,,225,(08) 8987 6366,Alyangula,"PMB 3, Alyangula",NT
Alyangula Pre School,Cnr Flinders St & Ayawarra Cr,,,,,,,Pre School,(08) 8987 6014,,,0,(08) 8987 6366,Alyangula,,
Amanbidgi School,,http://www.schools.nt.edu.au/kathgs/amanbidji/amanbidji.htm,admin.amanbsch@ntschools.net,Government,Rivers,852,Very Remote,Group School,(08) 9168 7359,,,11,(08) 9168 7380,Amanbidji (Kildirk),"PMB 16, via Katherine",NT
Amoonguna School,,,,Government,Desert Oaks,871,Remote,Group School,(08) 8952 3402,,,21,(08) 8952 3402,Amoonguna,"PO Box 2529, Alice Springs",NT
Ampilatwatja School,,http://www.schools.nt.edu.au/ampil/,,Government,Desert Oaks,872,Very Remote,Group School,(08) 8956 9799,,,105,(08) 8956 9799,Ampilatwatja (Ammaroo),"PMB 84, Alice Springs",NT
Angurugu CEC,,,admin.angurcec@ntschools.net,Government,Arnhem,885,Very Remote,Community School,(08) 8987 6106,,,221,(08) 8987 6355,Angurugu,"PMB 40, Alyangula",NT
Angurugu Pre School,,,,,,,,Pre School,(08) 8987 6106,,,0,(08) 8987 6355,Angurugu,,
Anula Pre School,73 Yanyula Dr,,,,,,,Pre School,(08) 8927 4561,,,0,(08) 8927 9477,Anula,,
Anula Primary School,73 Yanyula Dr,,anula.admin@ntschools.net,Government,Northern Suburbs,812,Provincial,Primary School,(08) 8927 4561,,,431,(08) 8927 9477,Anula,"Yanyula Drive, ANULA",NT
Anzac Hill High School,26 Schwarz Cres,,anzac.hill@ntschools.net,Government,Central Storm,871,Remote,Middle School,(08) 8951 3888,,,207,(08) 8951 3800,Alice Springs,"PO Box 8220, Alice Springs",NT
Araluen Christian School,10 Blain St,http://www.schools.nt.edu.au/araluen/,admin@acf.nt.edu.au,Independant,Desert Oaks,871,Remote,Primary School,(08) 89550060,,,123,(08) 89550121,Alice Springs,"PO Box 482, Alice Springs",NT
Areyonga School,,,tarna.andrews@ntschools.net,Government,Desert Oaks,871,Very Remote,Group School,(08) 8956 7303,,,51,(08) 8956 7303,Areyonga,"Areyonga, via Alice Springs",NT
Arnhem Group School,,,,,,,,Group School Office,,,,0,(08) 8987 6617,,,
Australian Technical College,,,,Independant,,801,,School,,,,0,08 89010900,Darwin,GPO Box 1994,
Bakewell Pre School,5 Hutchison Tce,,,,,,,Pre School,(08) 8931 0491,,,0,(08) 8931 0487,Bakewell,,
Bakewell Primary School,5 Hutchison Tce,http://www.schools.nt.edu.au/bakewell/,admin.bakewell@ntschools.net,Government,Palmerston & Rural,831,Provincial,Primary School,(08) 8931 0491,,,688,(08) 8931 0487,Bakewell,"PO Box 1300, Palmerston",NT
Barkly Group School,"Tennant Creek Training Centre, Staunton Street",,peter.jenkins@nt.gov.au,,,861,,Group School Office,(08) 8962 4372,,,0,(08) 8962 4351,Tennant Creek,"PO Box 459 , Tennant Creek",NT
Barunga School,,,office.barunga@ntschools.net,Government,Rivers,851,Very Remote,Group School,(08) 8975 4616,,,71,(08) 8975 4502,Barunga (Bamyili),"PMB 117, via Katherine",NT
Batchelor Area School,71 Kirra Cres,http://www.schools.nt.edu.au/batchas/,bas-admin@ntschools.net,Government,Palmerston & Rural,845,Remote,Area School,(08) 8976 0008,,,175,(08) 8976 0077,Batchelor,"c/- Post Office, Batchelor",NT
Batchelor Pre School,71 Kirra Cres,,,,,,,Pre School,(08) 8976 0008,,,0,(08) 8976 0077,Batchelor,,
Bees Creek Pre School,20 Sattler Cres,,,,,,,Pre School,(08) 8983 3120,,,0,(08) 8983 3222,Freds Pass,,
Bees Creek Primary School,20 Sattler Cres,http://www.schools.nt.edu.au/bcps/,bees.creek@ntschools.net,Government,Palmerston & Rural,831,Provincial,Primary School,(08) 8983 3120,,,369,(08) 8983 3222,Freds Pass,"PO Box 2271, Palmerston",NT
Belyuen School,,http://www.schools.nt.edu.au/tegs/belyuen/bely.htm,tim.webb@ntschools.net,Government,Palmerston & Rural,801,Remote,Group School,(08) 8978 5063,,,40,(08) 8978 5085,Belyuen,"PMB 2, Darwin",NT
Berry Springs Pre School,1150 Cox Peninsula Rd,,,,,,,Pre School,(08) 8988 6151,,,0,(08) 8988 6006,Berry Springs,,
Berry Springs Primary School,1150 Cox Peninsula Rd,,berrysprings.primary@ntschools.net,Government,Palmerston & Rural,837,Provincial,Primary School,(08) 8988 6151,,,247,(08) 8988 6006,Berry Springs,"CMB, Berry Springs",NT
Bonya School,Community ID 26,,,Government,Desert Oaks,872,Very Remote,Group School,,,,19,889566343,Orrtipa-Thurra (Bonya),"PMB 69, via Alice Springs",NT
Borroloola CEC,321 Robinson Rd,,admin.borrosch@ntschools.net,Government,Central Storm,854,Very Remote,Community School,(08) 8975 8819,,,226,(08) 8975 8780,Borroloola,"PMB 5, Borroloola",NT
Borroloola Pre School,321 Robinson Rd,,,,,,,Pre School,(08) 8975 8819,,,0,(08) 8975 8780,Borroloola,,
Bradshaw Pre School,23 Adamson Ave,,,,,,,Pre School,(08) 8953 2027,,,0,(08) 8952 3777,Alice Springs,,
Bradshaw Primary School,23 Adamson Ave,http://www.schools.nt.edu.au/bradshaw/,bradshaw.school@ntschools.net,Government,Desert Oaks,871,Remote,Primary School,(08) 8953 2027,,,341,(08) 8952 3777,Alice Springs,"PO Box 1744, Alice Springs",NT
Braitling Primary School,80 Head St,http://www.schools.nt.edu.au/braitps/,admin.braitsch@ntschools.net,Government,Desert Oaks,871,Remote,Primary School,(08) 8953 2217,,,394,(08) 8953 3855,Alice Springs,"PO Box 1669, Alice Springs",NT
Bulla Camp School,,http://www.schools.nt.edu.au/kathgs/bulla/bulla.htm,darren.pittaway@ntschools.net,Government,Rivers,851,Very Remote,Group School,(08) 9168 7325,,,22,(08) 9167 8957,Bulla,"PMB 89, Katherine",NT
Bulman School,,http://www.schools.nt.edu.au/kathgs/bulman/bulman.htm,school.bulman@ntschools.net,Government,Rivers,851,Very Remote,Group School,(08) 8975 4743,,,90,(08) 8975 4707,Bulman,"PMB 13, Katherine",NT
Callistemon House,80 Callistemon Drive,,callistemon@redzone.com.au,,,851,,Special School,89723233,,,0,89723212,Katherine,PO Box 1971,NT
Canteen Creek Primary School,,http://www.schools.nt.edu.au/canteen/,admin.cantesch@ntschools.net,Government,Central Storm,872,Very Remote,Group School,(08) 8964 1505,,,109,(08) 8964 1505,Canteen Creek,"PMB 105, via Alice Springs",NT
Casuarina Senior College,61 Parer Dr,http://www.schools.nt.edu.au/csc/,csc.admin@ntschools.net,Government,Northern Suburbs,811,Provincial,Senior College,(08) 89201222,,,1280,(08) 89201211,Moil,"PO Box 40196, Casuarina",NT
Casuarina Street Pre School,Casuarina St,,,,,,,Pre School,(08) 8972 3791,,,0,(08) 8971 2643,Katherine East,,
Casuarina Street Primary School,Casuarina St,http://www.schools.nt.edu.au/csps/,casuarina.admin@ntschools.net,Government,Rivers,851,Remote,Primary School,(08) 8972 3791,,,282,(08) 8971 2643,Katherine East,"PO Box 1046, Katherine",NT
Centralian Senior Secondary College,10 Grevillea Dr,http://www.schools.nt.edu.au/cssc/,admin.cssc@ntschools.net,Government,Central Storm,871,Provincial,Senior College,(08) 8959 5510,,,577,(08) 8959 5500,Alice Springs,"PO Box 4856, Alice Springs",NT
Clyde Fenton Pre School,101 Giles St,,,,,,,Pre School,(08) 8972 3067,,,0,(08) 8972 1122,Katherine,,
Clyde Fenton Primary School,101 Giles St,http://www.schools.nt.edu.au/clydefen/,admin.clydesch@ntschools.net,Government,Rivers,851,Remote,Primary School,(08) 8972 3067,,,326,(08) 8972 1122,Katherine,"PO Box 421, Katherine",NT
Darwin Adventist Primary School,17 Dalwood Cres,,das@cqnet.com.au,Independant,Northern Suburbs,811,Provincial,Primary School,(08) 89457890,,,14,(08) 89279596,Malak,"PO Box 41169, Casuarina",NT
Darwin High School,10 Atkins Dr,http://www.schools.nt.edu.au/darwinhs/,darwin.high@ntschools.net,Government,Darwin City,820,Provincial,High School,(08) 8981 2137,,,1193,(08) 8999 1222,The Gardens,"Bullocky Point, Darwin",NT
Darwin Languages Centre,Ryland Road,,nt.sol@ntschools.net,Government,,810,,Open Learning Centre,(08) 89480420,,,0,(08) 89850905,,c/o Nightcliff High School,Nightcliff
Darwin Middle school,Bullocky Point,,,Government,Darwin City,820,Provincial,Middle School,,,,405,89425200,,"Bullocky Point, Fannie Bay",NT
Docker River School,,http://www.deadlymob.org/col2_ob.cfm?randid=900232,edwyn.graham@ntschools.net,Government,Desert Oaks,872,Very Remote,Group School,(08) 8956 7348,,,40,(08) 8956 7348,Kaltukatjara (Docker River),"Docker River, via Alice Springs",NT
Don Dale Education Unit,Tivendale Road,,lisa.coon@ntschools.net,Government,Palmerston & Rural,801,Provincial,Group School,(08) 8947 1895,,,27,08 89220411,Berrimah,"PO Box 1407, Darwin",NT
Douglas Daly School,Jungawa Rd,http://www.schools.nt.edu.au/tegs/dougdaly/doug.htm,douglas.daly@ntschools.net,Government,Palmerston & Rural,822,Very Remote,Group School,(08) 8978 2512,,,11,(08) 8978 2836,Douglas-Daly,"PMB 46, Winnellie",NT
Dripstone Middle School,10 Delamere St,http://www.schools.nt.edu.au/drpstnhs/,admin.dripshs@ntschools.net,Government,Northern Suburbs,811,Provincial,Middle School,(08) 8927 8898,,,610,(08) 8920 2299,Tiwi,"PO Box 41370, Casuarina",NT
Driver Pre School,37 Driver Ave,,,,,,,Pre School,(08) 89359035,,,0,(08) 8935 9000,Driver,,
Driver Primary School,37 Driver Ave,http://www.schools.nt.edu.au/driverps/,admin.drivesch@ntschools.net,Government,Palmerston & Rural,831,Provincial,Primary School,(08) 89359035,,,496,(08) 8935 9000,Driver,"PO Box 33, Palmerston",NT
Dundee Beach School,500 Namarada Dr,http://www.schools.nt.edu.au/tegs/dundee/dund.htm,dundee.school@ntschools.net,Government,Palmerston & Rural,821,Remote,Group School,(08) 8978 2796,,,10,(08) 8978 2212,Dundee Beach,"PMB 193, Winnellie",NT
Durack Pre School,50 Woodlake Blvd,,,,,,,Pre School,(08) 8932 8894,,,0,(08) 8932 8905,Durack,,
Durack Primary School,50 Woodlake Bvd,http://www.schools.nt.edu.au/durack/,durack.school@ntschools.net,Government,Palmerston & Rural,831,Provincial,Primary School,(08) 89359260,,,446,(08) 89359259,Durack,"PO Box 225, Palmerston",NT
Elliott School,24 Bray St,,noeline.laurie@ntschools.net,Government,Central Storm,862,Very Remote,Group School,(08) 8969 2053,,,95,(08) 8969 2050,Elliott,"C/- Elliott Post Office, Elliott",NT
Epenarra School,,,marg.hannan@ntschools.net,Government,Central Storm,861,Very Remote,Group School,(08) 8964 1512,,,59,(08) 8964 1512,Wutunugurra (Epenarra),"PMB 270, via Alice Springs",NT
Essington School,22 Chapman Rd,www.essington.nt.edu.au,administration@essington.nt.edu.au,Independant,Darwin City,811,Provincial,Primary School,(08) 89481910,,,586,(08) 89481255,Rapid Creek,"PO Box 42321, Casuarina",NT
Finke School,,http://www.deadlymob.org/col2_ob.cfm?randid=764555,school.finke@ntschools.net,Government,Desert Oaks,871,Very Remote,Group School,(08) 8956 0960,,,37,(08) 8956 0960,Finke,"PMB 30, via Alice Springs",NT
Gapuwiyak CEC,,,admin.gapuwcec@ntschools.net,Government,Arnhem,881,Very Remote,Community School,(08) 8987 9109,,,272,(08) 8987 9122,Gapuwiyak,"CMB 18, via Nhulunbuy",NT
Gapuwiyak Pre School,,,,,,,,Pre School,(08) 8987 9109,,,0,(08) 8987 9122,Gapuwiyak,,
Gawa Christian School,Community ID 508,,,Independent,,not available,Very Remote,Community School,,,,25,(08) 89879239,Gawa,,NT
Gillen Pre School,12 Newland St,,,,,,,Pre School,(08) 89534804,,,0,(08) 8952 2355,Alice Springs,,
Gillen Primary School,55 Milner Rd,http://www.schools.nt.edu.au/gillen/,gillen.school@ntschools.net,Government,Desert Oaks,871,Remote,Primary School,(08) 89 522334,,,299,(08) 8952 2355,Alice Springs,"PO Box 769, Alice Springs",NT
Girraween Pre School,25 Carruth Rd,,,,,,,Pre School,(08) 8983 4202,,,0,(08) 8983 3300,Girraween,,
Girraween Primary School,25 Carruth Rd,,admin.girrasch@ntschools.net,Government,Palmerston & Rural,835,Provincial,Primary School,(08) 8983 4202,,,296,(08) 8983 3300,Girraween,"GPO Box 4821, Darwin",NT
Gochin Jiny Jirra School,Community ID.319,http://www.schools.nt.edu.au/tegs/gochan/goch.htm,chris.nock@ntschools.net,Government,Palmerston & Rural,822,Very Remote,Group School,(08) 8979 0339,,,25,(08) 8979 0306,Gochin Jiny Jirra,"PMB 38, via Winnellie",NT
Good Shepherd Lutheran School,11 Emery Ave,http://home.austarnet.com.au/sheep/,admin.goodshep@ntschools.net,Independant,Palmerston & Rural,831,Provincial,Primary School,(08) 89322848,,,194,(08) 89322003,Gray,"PO Box 2171, Palmerston",NT
Government,,,,,,,,,,,,0,,,,
Gray Pre School,22 Victoria Dr,,,,,,,Pre School,(08) 8932 1007,,,0,(08) 8932 1700,Gray,,
Gray Primary School,22 Victoria Dr,http://www.schools.nt.edu.au/grayps/,admin.graysch@ntschools.net,Government,Palmerston & Rural,830,Provincial,Primary School,(08) 8932 1007,,,394,(08) 8932 1700,Gray,"Victoria Drive, Gray",NT
Gulf Group School,Robinson Road,,borroloola.cec@ntschools.net,,,854,,Group School Office,08 89758819,,,0,08 89758780,Borroloola,"PMB 5, Borroloola",NT
Gunbalanya CEC,,,admin.gunbacec@ntschools.net,Government,Palmerston & Rural,822,Very Remote,Community School,(08) 8979 0143,,,333,(08) 8979 0181,Gunbalanya,"PMB 66, Gunbalanya",NT
Gunbalanya Pre School,,,,,,,,Pre School,(08) 8979 0143,,,0,(08) 8979 0181,Gunbalanya,,
Haasts Bluff School,,http://www.deadlymob.org/col2_ob.cfm?randid=664311,faye.cameron@ntschools.net,Government,Desert Oaks,872,Very Remote,Group School,(08) 8956 8550,,,20,(08) 8956 8550,Haasts Bluff (Ikuntji),"Haasts Bluff, via Alice Springs",NT
Harts Range School,,,harts.school@ntschools.net,Government,Desert Oaks,871,Very Remote,Group School,(08) 8956 9771,,,70,(08) 8956 9771,Atitjere (Hart Range),"PMB 162, via Alice Springs",NT
Henbury School,312 Trower Rd,http://www.henbury.nt.edu.au/,henbury.admin@ntschools.net,Government,Northern Suburbs,810,Provincial,Special Purpose School,(08) 8927 3367,,,56,(08) 8927 5088,Wanguri,"4 Henbury Avenue, Wanguri",NT
Holy Family Catholic School,Calytrix Road,http://www.schools.nt.edu.au,admin@holyfamily.nt.catholic.edu.au,Catholic,Northern Suburbs,812,Provincial,Primary School,(08) 89452254,,,257,(08) 89276188,Karama,"PO Box 40870, Casuarina",NT
Holy Spirit Catholic School,Gsell Street,http://www.schools.nt.edu.au/holyspirit/,holyspirit@austarnet.com.au,Catholic,Northern Suburbs,810,Provincial,Primary School,(08) 89279971,,,341,(08) 89273411,Casuarina,"PO Box 40030, Casuarina",NT
Howard Springs Pre School,295 Whitewood Rd,,,,,,,Pre School,(08) 8983 1834,,,0,(08) 8983 0000,Howard Springs,,
Howard Springs Primary School,295 Whitewood Rd,http://www.schools.nt.edu.au/howardsp/,howard.springs@ntschools.net,Government,Palmerston & Rural,835,Provincial,Primary School,(08) 8983 1834,,,279,(08) 8983 0000,Howard Springs,"PO Box 171, Howard Springs",NT
Humpty Doo Pre School,50 Freds Pass Rd,,,,,,,Pre School,(08) 8988 1845,,,0,(08) 8988 1255,Humpty Doo,,
Humpty Doo Primary School,50 Freds Pass Rd,http://www.schools.nt.edu.au/humptydoo/,humptydoo@ntschools.net,Government,Palmerston & Rural,836,Provincial,Primary School,(08) 8988 1845,,,489,(08) 8988 1255,Humpty Doo,"PO Box 46, Humpty Doo",NT
IDA Standley Pre School,15 Parke Cres,,,,,,,Pre School,89532912,,,0,89526044,Alice Springs,,
Imanpa School,,,sian.munn@ntschools.net,Government,Desert Oaks,872,Very Remote,Group School,(08) 8956 7483,,,23,(08) 8956 7483,Imanpa,"PMB 76, via Alice Springs",NT
Ipolera School,Community ID 60,,ipolera.school@ntschools.net,Government,Desert Oaks,872,Very Remote,Group School,(08) 8956 7875,,,9,(08) 8956 7316,Ipolera,"PMB 114, via Alice Springs",NT
Jabiru Area School,40 Waterhouse Rd,,jabiru.areaschool@ntschools.net,Government,Palmerston & Rural,886,Remote,Area School,(08) 8979 2792,,,273,(08) 8979 2505,Jabiru,"PO Box 246, Jabiru",NT
Jabiru Pre School,40 Waterhouse Rd,,,,,,,Pre School,(08) 8979 2792,,,0,(08) 8979 2505,Jabiru,,
Jilkminggan School,,http://www.schools.nt.edu.au/kathgs/jilkminggan/jilkminggan.htm,des.barritt@ntschools.net,Government,Rivers,852,Very Remote,Group School,(08) 8975 4897,,,91,(08) 8975 4896,Jilkminggan (Duck Creek),"PO Box 4054, Mataranka",NT
Jingili Preschool,10 Jingili Tce,,,,,,,Pre School,(08) 8985 3213,,,0,(08) 8985 1555,Jingili,,
Jingili Primary School,17 Rindberg St,http://www.schools.nt.edu.au/jingili/,jingili.school@ntschools.net,Government,Darwin City,810,Provincial,Primary School,(08) 8985 3213,,,266,(08) 8985 1555,Jingili,"Knowles St, Jingili",NT
Kalkarindji CEC,Whitlam St,http://www.schools.nt.edu.au/riverscluster/kalkaringi/default.htm,principal.kalkaringi@ntschools.net,Government,Rivers,852,Very Remote,Community School,(08) 8975 0813,,,173,(08) 8975 0778,Kalkarindji (Wave Hill),"PMB 41, Katherine",NT
Kalkarindji Pre School,Whitlam St,,,,,,,Pre School,(08) 8975 0813,,,0,(08) 8975 0778,Kalkarindji (Wave Hill),,
Karama Pre School,37 Livistona Rd,,,,,,,Pre School,(08) 8945 0261,,,0,(08) 8927 5111,Karama,,
Karama Primary School,37 Livistona Rd,,karama.school@ntschools.net,Government,Northern Suburbs,813,Provincial,Primary School,(08) 8945 0261,,,268,(08) 8927 5111,Karama,"PO Box 103, Sanderson",NT
Katherine Group School,"Block 4 MacFarlane Campus, Grevilliea Road",http://www.schools.nt.edu.au/kathgs/,stuart.dwyer@nt.gov.au,,,851,,Group School Office,(08) 8972 8716,,,0,(08) 89728 777,Katherine,"PO Box 1546, Katherine",NT
Katherine High School,Grevillea Rd,http://www.schools.nt.edu.au/kathhigh/,ken.barnes@ntschools.net,Government,Rivers,851,Remote,High School,(08) 8973 8288,,,700,(08) 8973 8200,Katherine East,"PO Box 189, Katherine",NT
Katherine School Of The Air,101 Giles St,http://www.schools.nt.edu.au/ksa/,kath.soa@ntschools.net,Government,Rivers,851,Remote,Open Learning Centre,(08) 8972 3651,,,232,(08) 8972 1833,Katherine,"PO Box 531, Katherine",NT
Katherine South Pre School,13 Shepherd St,,,,,,,Pre School,(08) 8972 1857,,,0,(08) 8972 1277,Katherine,,
Katherine South Primary School,Riverbank Dr,,sharni.wilson@ntschools.net,Government,Rivers,851,Remote,Primary School,(08) 8972 1857,,,326,(08) 8972 1277,Katherine,"PO Box 721, Katherine",NT
Kiana School,,http://www.deadlymob.org/col2_ob.cfm?randid=140671,TBA,Government,Palmerston and Rural,861,Very Remote,Group School,(08) 8975 9816,,,21,(08) 8975 9816,Kiana,"PMB 33, Tennant Creek",NT
Kintore Street Pre School,11 Kintore St,,,,,,,Pre School,(08) 8971 0462,,,0,(08) 8971 0060,Katherine,,
Kintore Street School,11 Kintore St,http://www.deadlymob.org/col2_ob.cfm?randid=325119,kintore.school@ntschools.net,Government,Rivers,851,Remote,Primary School,(08) 8971 0462,,,9,(08) 8971 0060,Katherine,"PO Box 1931, Katherine",NT
Kormilda College,1 College Rd,http://www.kormilda.nt.edu.au/,admin@kormilda.nt.edu.au,Independent,Darwin City,828,Provincial,High School,(08) 89470792,,,921,(08) 89221611,Berrimah,"PO Box 241, Berrimah",NT
Lajamanu CEC,,http://www.schools.nt.edu.au/lajacec/,admin.lajamcec@ntschools.net,Government,Rivers,851,Very Remote,Community School,(08) 8975 0948,,,164,(08) 8975 0946,Lajamanu (Hooker Ck),"PMB 63, via Katherine",NT
Lajamanu Pre School,,,,,,,,Pre School,(08) 8975 0948,,,0,(08) 8975 0946,Lajamanu (Hooker Ck),,
Laramba School,,,laramba.school@ntschools.net,Government,Desert Oaks,872,Very Remote,Group School,(08) 8956 8779,,,91,(08) 8956 8779,Laramba (Napperby),"PMB 213, via Alice Springs",NT
Larapinta Pre School,22 Albrecht Dr,,,,,,,Pre School,(08) 8955 0299,,,0,(08) 8955 0811,Alice Springs,,
Larapinta Primary School,22 Albrecht Dr,http://www.schools.nt.edu.au/larapsch/,stewart.moyses@ntschools.net,Government,Desert Oaks,871,Remote,Primary School,(08) 8955 0299,,,295,(08) 8955 0811,Alice Springs,"PO Box 9021, Alice Springs",NT
Larrakeyah Pre School,3 Packard St,,,,,,,Pre School,(08) 8981 9062,,,0,(08) 8981 3211,Larrakeyah,,
Larrakeyah Primary School,3 Packard St,http://www.schools.nt.edu.au/larrakeyah/,larrakeyah.admin@ntschools.net,Government,Darwin City,801,Provincial,Primary School,(08) 8981 9062,,,337,(08) 8981 3211,Larrakeyah,"PO Box 412, Darwin",NT
Lasseter Group School,"Block A, ASHS, Milner Road",,geoff.hobson@nt.gov.au,,,871,,Group School Office,(08) 89504229,,,0,89504200,Alice Springs,PO Box 1420,NT
Leanyer Pre School,114 Leanyer Dr,,,,,,,Pre School,(08) 8927 2566,,,0,(08) 8927 4022,Leanyer,,
Leanyer Primary School,114 Leanyer Dr,http://www.schools.nt.edu.au/leanyr,adminleanyer@bigpond.com,Government,Northern Suburbs,812,Provincial,Primary School,(08) 8927 2566,,,523,(08) 8927 4022,Leanyer,"Leanyer Drive, Leanyer",NT
Litchfield Christian School,15 Sattler Cres,,admin.lcs@lcs.net.edu.au,Independant,Palmerston & Rural,836,Provincial,Primary School,(08) 89831297,,,91,(08) 89831268,Freds Pass,"PO Box 546, Humpty Doo",NT
Living Waters Lutheran School,5 Albrecht Dr,http://www.schools.nt.edu.au/lwlps/,LivingWaters@austarnet.com.au,Independant,Desert Oaks,871,Remote,Primary School,(08) 89550435,,,356,(08) 89550400,Alice Springs,"PO Box 8869, Alice Springs",NT
Ltyentye Apurte CEC,,http://www.schools.nt.edu.au/ltyentye/,las.admin@latis.net.au,Catholic,Desert Oaks,871,Remote,Community School,(08) 89560963,,,110,(08) 89560937,Santa Teresa (Ltyenty Apurte),"Santa Teresa, via Alice Springs",NT
Ludmilla Pre School,41 Bagot Rd,,,,,,,Pre School,(08) 8999 3232,,,0,(08) 8999 3233,Ludmilla,,
Ludmilla Primary School,41 Bagot Rd,http://www.schools.nt.edu.au/ludps/,admin.ludmilla@ntschools.net,Government,Darwin City,821,Provincial,Primary School,(08) 8999 3232,,,199,(08) 8999 3233,Ludmilla,"PO Box 39945, Winnellie",NT
MacFarlane Pre School,Grevillea Rd,,,,,,,Pre School,(08) 8972 3488,,,0,(08) 8972 3666,Katherine East,,
MacFarlane Primary School,Grevillea Rd,http://www.schools.nt.edu.au/riverscluster/macfarlane/default.htm,jennifer.henderson@ntschools.net,Government,Rivers,850,Remote,Primary School,(08) 8972 3488,,,263,(08) 8972 3666,Katherine East,"Grevillea Road, Katherine East",NT
Malak Pre School,45 Malak Cres,,,,,,,Pre School,(08) 89451901,,,0,(08) 8920 0000,Malak,,
Malak Primary School,45 Malak Cres,http://www.schools.nt.edu.au/malakps/,admin.malak@ntschools.net,Government,Northern Suburbs,812,Provincial,Primary School,(08) 89451901,,,312,(08) 8920 0000,Malak,"45 Malak Crescent, Malak",NT
Mamaruni School,,http://www.schools.nt.edu.au/tegs/mamaruni/mama.htm,mamaruni.sch@ntschools.net,Government,Palmerston & Rural,822,Very Remote,Group School,(08) 8979 0256,,,80,(08) 8979 0255,Minjilang (Croker Is),"PMB 47, via Winnellie",NT
Maningrida CEC,,,maningrida.cec@ntschools.net,Government,Arnhem,822,Very Remote,Community School,(08) 8979 5907,,,586,(08) 8979 5950,Maningrida,"PMB 67, via Winnellie",NT
Maningrida Pre School,,,,,,,,Pre School,(08) 8979 5907,,,0,(08) 8979 5950,Maningrida,,
Manunda Terrace Pre School,31 Manunda Tce,,,,,,,Pre School,(08) 8945 2486,,,0,(08) 8927 7666,Karama,,
Manunda Terrace Primary School,31 Manunda Tce,http://www.schools.nt.edu.au/manunda/,manunda.school@ntschools.net,Government,Northern Suburbs,812,Provincial,Primary School,(08) 8945 2486,,,254,(08) 8927 7666,Karama,"Manunda Tce, Karama",NT
Manyallaluk Homeland School,,,trish.noy@ntschools.net,Government,Rivers,851,Very Remote,Group School,(08) 89754240,,,28,89754438,Manyallaluk (Eva Valley),"PO Box 271, Katherine",NT
Marrara Christian School,110 Amy Johnson Ave,www.mcc.nt.edu.au,principal.mcc@ntschools.net,Independant,Northern Suburbs,812,Provincial,Community School,(08) 8920 2001,,,398,(08) 8920 2000,Marrara,"PO Box 84, Sanderson",NT
Mataranka Primary School,Roper Tce,http://www.schools.nt.edu.au/kathgs/mataranka/mataranka.htm,alf.murray@ntschools.net,Government,Rivers,852,Very Remote,Group School,,,,37,,Mataranka,"PO Box 4022, Mataranka",NT
Mbunghara School,,,mbunghara.school@ntschools.net,Government,Desert Oaks,872,Very Remote,Group School,(08) 8956 8503,,,13,(08) 8956 8503,Mbunghara,"PMB 242, via Alice Springs",NT
Middle Point School,615 Anzac Pde,http://www.schools.nt.edu.au/tegs/middlep/midd.htm,middle.pt@ntschools.net,Government,Palmerston & Rural,836,Provincial,Group School,(08) 8988 8023,,,37,(08) 8988 1688,Middle Point,"PO Box 96, Humpty Doo",NT
Milikapiti School,,http://www.schools.nt.edu.au/tegs/milik/mili.htm,milikapiti.school@ntschools.net,Government,Palmerston & Rural,822,Very Remote,Group School,(08) 8978 3925,,,93,(08) 8978 3960,Milikapiti (Snake Bay),"PMB 96, via Winnellie",NT
Milingimbi CEC,,,admin.milincec@ntschools.net,Government,Arnhem,822,Very Remote,Community School,(08) 8987 9926,,,273,(08) 8987 9902,Milingimbi,"PMB 54, Milingimbi, via Winnellie",NT
Milingimbi Pre School,,,,,,,,Pre School,(08) 8987 9926,,,0,(08) 8987 9902,Milingimbi,,
Milkwood Steiner,3 Cecil Cook Ave,,milkwoodschool@octa4.net.au,Independant,Northern Suburbs,812,,Primary School,08 8927 0175,,,62,08 8927 0170,Marrara,"PO Box 737, Nightcliff",NT
Millner Pre School,10 Robinson Rd,,,,,,,Pre School,(08) 8948 0751,,,0,(08) 8948 1163,Millner,,
Millner Primary School,41 Sabine Rd,http://www.schools.nt.edu.au/millner/home.html,admin.millnerps@ntschools.net,Government,Darwin City,810,Provincial,Primary School,(08) 8948 0751,,,238,(08) 8948 1163,Millner,"Sabine Rd, Millner",NT
Milyakburra School,,,adrian.conroy@ntschools.net,Government,Arnhem,885,Very Remote,Group School,(08) 8987 6049,,,30,(08) 8987 6084,Milyakburra (Bickerton Is),"PMB 5, Alyangula",NT
Minyerri Pre School,,,,,,,,Pre School,(08) 8975 9893,,,0,(08) 8975 9972,Minyerri (Hodgson Downs),,
Minyerri School,,http://www.schools.nt.edu.au/kathgs/minyerri/minyerri.htm,,Government,Rivers,851,Very Remote,Community School,(08) 8975 9893,,,177,(08) 8975 9972,Minyerri (Hodgson Downs),"PMB 40, Katherine",NT
Mitchell School,"12th Floor Mitchell Centre, 55-59 Mitchell Street",,,Government,,810,,Test Purposes,,,,0,,Darwin City,,
Moil Pre School,37 Lanyon Tce,,,,,,,Pre School,(08) 8920 6869,,,0,(08) 8920 6870,Moil,,
Moil Primary School,37 Lanyon Tce,http://www.schools.nt.edu.au/moilps/,admin.moilsch@ntschools.net,Government,Darwin City,810,Provincial,Primary School,(08) 8920 6869,,,282,(08) 8920 6868,Moil,"Lanyon Tce, Moil",NT
Moulden Pre School,103 Bonson Tce,,,,,,,Pre School,(08) 8932 3214,,,0,(08) 8932 1133,Moulden,,
Moulden Primary School,103 Bonson Tce,,mouldenps.admin@ntschools.net,Government,Palmerston & Rural,831,Provincial,Primary School,(08) 8932 3214,,,437,(08) 8932 1133,Moulden,"PO Box 80, PALMERSTON",NT
Mount Allen School,,,michael.kinnane@ntschools.net,Government,Desert Oaks,872,Very Remote,Group School,(08) 8956 8846,,,50,(08) 8956 8860,Yuelamu (Mt Allen),"PMB 6, via Alice Springs",NT
Murray Downs School,Outstation,,sheri.nicholls@ntschools.net,Government,Central Storm,872,Very Remote,Group School,(08) 8964 1993,,,39,(08) 8964 1951,Murray Downs(Imangara),"PMB 48, Alice Springs",NT
Murrupurtiyanuwu Catholic School,Kerinavia Hwy,,maryann.hinton@latis.net.au,Catholic,Palmerston & Rural,821,Very Remote,Community School,(08) 89783922,,,255,(08) 89783986,Nguiu,"Nguiu, Bathurst Island, via Winnellie",NT
Mutjitjulu School,,,mutitsch@ntschools.net,Government,Desert Oaks,872,Very Remote,Group School,(08) 8956 2176,,,32,(08) 8956 2547,Ayers Rock,"Community Mail Agency, Ininti Store, Ayers Rock",NT
Nakara Pre School,35 Nakara Tce,,,,,,,Pre School,(08) 8927 7994,,,0,(08) 8927 9823,Nakara,,
Nakara Primary School,35 Nakara Tce,http://www.schools.nt.edu.au/nakara/,nakara.primary@ntschools.net,Government,Northern Suburbs,810,Provincial,Primary School,(08) 8927 7994,,,476,(08) 8927 9823,Nakara,"Goodman St, Nakara",NT
Nemarluk School,41 Bagot Rd,,admin.nemarluk@ntschools.net,Government,Darwin City,821,Provincial,Special Purpose School,(08) 8948 0016,,,92,(08) 8985 3100,Ludmilla,"PO Box 39729, Winnellie",NT
Neutral Junction School,Stuart Hwy,,kath.major@ntschools.net,Government,Central Storm,872,Very Remote,Group School,(08) 8956 9754,,,26,(08) 8956 9754,Neutral Junction,"Neutral Junction Station, PMB 245, via Alice Springs",NT
Newcastle Waters School,11 Drovers Dr,,rosemary.raymond@ntschools.net,Government,Central Storm,862,Very Remote,Group School,(08) 8964 4637,,,27,(08) 8964 4566,Newcastle Waters,"Newcastle Waters Station, via Elliott",NT
Nganmarriyanga School,,http://www.schools.nt.edu.au/tegs/nganmar/ngan.htm,nganmar.ps@ntschools.net,Government,Palmerston & Rural,822,Very Remote,Group School,(08) 8978 2575,,,154,(08) 8978 2380,Palumpa,"PMB 85, via Winnellie",NT
Ngukurr Pre School,Bawuda St,,,,,,,Pre School,(08) 8975 4681,,,0,(08) 8975 4680,Ngukurr,,
Ngukurr School,Bawuda St,http://www.schools.nt.edu.au/riverscluster/ngukurr/default.htm,ngukurr.cec@ntschools.net,Government,Rivers,851,Very Remote,Community School,(08) 8975 4681,,,327,(08) 8975 4680,Ngukurr,"PMB 138, KKatherine",NT
Nhulunbuy Christian School,,,admin@lncs.nt.edu.au,Independant,Arnhem,881,Very Remote,Primary School,(08) 89872357,,,147,(08) 89872187,Nhulunbuy,"PO Box 621, Nhulunbuy",NT
Nhulunbuy High School,51 Matthew Flinders Way,http://www.schools.nt.edu.au/nhulhs/,nhulunbuy.high@ntschools.net,Government,Arnhem,881,Very Remote,High School,(08) 8987 1944,,,305,(08) 8987 0844,Nhulunbuy,"PO Box 1096, Nhulunbuy",NT
Nhulunbuy Pre School,36 Chesterfield Cct,,,,,,,Pre School,(08) 8987 2203,,,0,(08) 8987 0422,Nhulunbuy,,
Nhulunbuy Primary School,Chesterfield Cct,http://www.nhulunbuy.atwone.com/,Nps.frontoffice@ntschools.net,Government,Arnhem,881,Very Remote,Primary School,(08) 89872203,,,559,(08) 89870422,Nhulunbuy,"PO Box 321, Nhulunbuy",NT
Nightcliff Middle School,90 Aralia St,http://www.nightcliffhigh.com.au/,admin.nighths@ntschools.net,Government,Darwin City,810,Provincial,Middle School,(08) 8985 0860,,,275,(08) 8985 0850,Rapid Creek,"Ryland Rd, Nightcliff",NT
Nightcliff Pre School,17 Pandanus St,,,,,,,Pre School,(08) 8948 8499,,,0,(08) 8948 8488,Nightcliff,,
Nightcliff Primary School,17 Pandanus St,http://www.schools.nt.edu.au/nightcliffps/,nightcliff.ps@ntschools.net,Government,Darwin City,810,Provincial,Primary School,(08) 8948 8499,,,529,(08) 8948 8488,Nightcliff,"PO BOX 798, Nightcliff",NT
Northern Territory Rural College,Stuart Hwy,not available,ntrural@cdu.edu.au,Independant,Rivers,851,not available,Senior College,(08) 89723562,,,0,(08) 89738311,Katherine,"PMB 155, Katherine",NT
Nt Christian College,,,,Catholic,,,,High School,,,,90,,,,NT
NT Music School,Ryland Road,,rebecca.leach@ntschools.net,government,Darwin City,810,,Open Learning Centre,(08) 89481778,,,0,(08) 89850872,Nightcliff,"c/o Nightcliff High School, Ryland Rd, Nightcliff",NT
NT Open Education Centre,19 Chrisp St,http://www.ntoec.nt.edu.au/site/frontpage.cfm,ntoec.admin@ntschools.net,Government,Darwin City,811,Remote,Open Learning Centre,(08) 89222258,,,1123,(08) 89222292,Rapid Creek,"PO Box 40471, Casuarina",NT
Ntaria School,,http://www.deadlymob.org/col2_ob.cfm?randid=581122,ntaria.school@ntschools.net,Government,Desert Oaks,872,Very Remote,Group School,(08) 8956 7409,,,133,(08) 8956 7424,Hermannsburg (Ntaria),"PMB 4, Alice Springs",NT
Numbulwar Pre School,,,,,,,,Pre School,(08) 8975 4651,,,0,(08) 8975 4650,Numbulwar,,
Numbulwar School,,,principal.numbulwar@ntschools.net,Government,Arnhem,852,Very Remote,Community School,(08) 8975 4651,,,250,(08) 8975 4650,Numbulwar,"PMB 68, via Katherine",NT
Nyangatjatjara Colege - Docker Rvr Campus,,,ncolldocker@octa4.net.au,Independant,Desert Oaks,872,,Community School,(08) 89567036,,,72,(08) 89567098,Kaltukatjara (Docker River),"PO Box 171, Yulara",NT
Nyangatjatjara Colege - Imanpa Campus,,,ncollimanpa@octa4.net.au,Independant,Desert Oaks,872,,Community School,(08) 89567038,,,0,(08) 89567038,,"PO Box 171, Yulara",NT
Nyangatjatjara Colege - Mutitjulu Campus,,,ncollmutitjulu@octa4.net.au,Independant,Desert Oaks,872,,Community School,(08) 89562688,,,0,(08) 89562270,,"PO Box 171, Yulara",NT
Nyangatjatjara Colege - Yulara Campus,,,ncollege@octa4.net.au,Independant,Desert Oaks,872,Very Remote,Community School,(08) 89562466,,,0,(08) 89562555,Yulara,"PO Box 171, Yulara",NT
Nyirripi School,,http://www.deadlymob.org/col2_ob.cfm?randid=590255,wendy.jones@ntschools.net,Government,Desert Oaks,872,Very Remote,Group School,(08) 8956 8397,,,38,(08) 8956 8880,Nyirripi,"PMB 125, via Alice Springs",NT
Oloughlin Catholic College,70 Mueller Rd,http://www.oloughlin.nt.catholic.edu.au/default.htm,secretary@oloughlin.nt.catholic.edu.au,Catholic,Northern Suburbs,812,Provincial,High School,(08) 89277140,,,470,(08) 89451277,Karama,"PO Box 41911, Casuarina",NT
OLSH College - Sadadeen Campus,Sadadeen Rd,http://www.olshalice.nt.edu.au/,principal@olshalice.nt.catholic.edu.au,Catholic,Central Storm,871,Remote,Community School,(08) 89532624,,,922,(08) 89508666,Alice Springs,"PO Box 2508, Alice Springs",NT
OLSH College - Traeger Campus,8 Traeger Ave,http://www.olshalice.nt.edu.au/,principal@olshalice.nt.catholic.edu.au,Catholic,Central Storm,871,,Community School,(08) 89532624,,,348,(08) 89508666,Alice Springs,"PO Box 2508, Alice Springs",NT
OLSH Port Keats,,,olsh.school@ntschools.net,Catholic,Palmerston & Rural,822,Very Remote,Community School,(08) 89782300,,,0,(08) 89782477,Wadeye (Port Keats),"Wadeye, Port Keats, via Winnellie",NT
OLSH Primary School,5 Bath St,http://www.olshalice.nt.edu.au/,principal@olshalice.nt.edu.au,Catholic,Central Storm,871,,Primary School,(08) 89524607,,,0,(08) 89506400,Alice Springs,"PO Box 2508, Alice Springs",NT
Palmerston Christian School,"50 Waler Road, Marlow Lagoon",www.pcs.nt.edu.au,admin@pcs.nt.edu.au,Independant,Palmerston & Rural,831,Provincial,Primary School,(08) 89323440,,,265,(08) 89323377,Marlow Lagoon,"PO Box 113, Palmerston",NT
Palmerston High School,10 Tilston Ave,http://www.schools.nt.edu.au/palmhs/,Palmerston.high@ntschools.net,Government,Palmerston & Rural,831,Provincial,High School,(08) 8932 2232,,,1060,(08) 8935 0222,Driver,"PO Box 8, Palmerston",NT
Papunya School,,,papunya.admin@ntschools.net,Government,Desert Oaks,872,Very Remote,Group School,(08) 8956 8651,,,100,(08) 8956 8515,Papunya,"PMB 77, Alice Springs",NT
Parap Pre School,61 Ross Smith Ave,,,,,,,Pre School,(08) 8982 2911,,,0,(08) 8982 2922,Parap,,
Parap Primary School,52 Parap Rd,http://www.schools.nt.edu.au/parap/,parapps.office@ntschools.net,Government,Darwin City,804,Provincial,Primary School,(08) 8982 2911,,,431,(08) 8982 2922,Parap,"PO Box 69, Parap",NT
Peppimenarti School,,http://www.schools.nt.edu.au/tegs/peppimen/pepp.htm,valdis.martins@ntschools.net,Government,Palmerston & Rural,822,Very Remote,Group School,(08) 8978 2578,,,56,(08) 8978 2455,Peppimenarti,"PMB 49, via Winnellie",NT
Pigeon Hole School,,,admin.pigeosch@ntschools.net,Government,Rivers,852,Very Remote,Group School,(08) 8975 0745,,,50,(08) 8975 0812,Pigeon Hole,"PMB 10, via Katherine",NT
Pine Creek School,,http://www.schools.nt.edu.au/kathgs/pineCreek/pineCreek.htm,,Government,Rivers,847,Remote,Group School,(08) 8976 1246,,,62,(08) 8976 1228,Pine Creek,"PO Box 196, PPine Creek",NT
Pularumpi School,Pularumpi,http://www.schools.nt.edu.au/tegs/pularump/pula.htm,principal.pularumpi@ntschools.net,Government,Palmerston & Rural,822,Very Remote,Group School,(08) 8978 3723,,,92,(08) 8978 3961,Pirlangimpi,"PMB 51, via Winnellie",NT
Ramingining Pre School,,,,,,,,Pre School,(08) 8979 7916,,,0,(08) 8979 7924,Ramingining,,
Ramingining School,,,coralyn.armstrong@ntschools.net,Government,Arnhem,822,Very Remote,Community School,(08) 8979 7916,,,272,(08) 8979 7924,Ramingining,"PMB 125, via Darwin",NT
Robinson River School,,http://www.deadlymob.org/col2_ob.cfm?randid=272331,robin.school@ntschools.net,Government,Palmerston and Rural,851,Very Remote,Group School,(08) 8975 9838,,,56,(08) 8975 9956,Robinson River,"PMB 145, Katherine",NT
Rockhampton Downs School,Community ID 259,,lynette.milnes@ntschools.net,Government,Central Storm,862,Very Remote,Group School,(08) 8964 4678,,,9,(08) 8964 4675,Wogyala,"PMB 34, Tennant Creek",NT
Rona Glynn Pre School,2 Mckay St,,,,,,,Pre School,(08) 8952 6524,,,0,(08) 8952 1333,Alice Springs,,
Ross Park Primary School,7 Winnecke Ave,http://www.schools.nt.edu.au/rosspark/,rosspark.school@ntschools.net,Government,Central Storm,871,Provincial,Primary School,(08) 8952 6524,,,391,(08) 8952 1333,Alice Springs,"PO Box 364, Alice Springs",NT
Royal Darwin Hospital,"Rocklands Drive, Tiwi",,anne.clifford@ntschools.net,government,Northern Suburbs,810,,Primary School,(08) 89228252,,,0,(08) 89228736,Tiwi,"C/o Nakara Primary School, Goodman St, Nakara",NT
Sacred Heart Primary School,34 Emery Ave,http://www.shps.nt.catholic.edu.au/,admin@shps.nt.catholic.edu.au,Catholic,Palmerston & Rural,831,Provincial,Primary School,(08) 89322388,,,344,(08) 89322888,Woodroffe,"PO Box 271, Palmerston",NT
Sadadeen Pre School,80 Spearwood Rd,,,,,,,Pre School,(08) 8953 2912,,,0,(08) 8952 6044,Alice Springs,,
Sadadeen Primary School,80 Spearwood Rd,http://www.schools.nt.edu.au/sadadsch,sadadeen.primary@ntschools.net,Government,Central Storm,871,Provincial,Primary School,(08) 8953 2912,,,270,(08) 8952 6044,Alice Springs,"PO Box 2707, AAlice Springs",NT
Sanderson Middle School,60 Matthews Rd,http://www.sanderson.nt.edu.au/,sanderson.high@ntschools.net,Government,Northern Suburbs,813,Provincial,Middle School,(08) 8927 2127,,,480,(08) 8927 8899,Malak,"PO Box 189, Sanderson",NT
Sandover Group School,"Block A, Alice Springs High, Milner Road",,therese.hicks@nt.gov.au,,,870,,Group School Office,(08) 89504289,,,0,08 89504260,,PO Box 1420,Alice Springs
School Sport NT,Sabine Road,www.schools.nt.edu.au/ssnt/,email.ssnt@ntschools.net,government,Darwin City,810,Provincial,Primary School,(08) 89480257,,,0,(08) 89480025,Millner,"PO Box 1992, Casuarina, NT, 0811",NT
Shepherdson College,Wakirana St,,kaye.thurlow@ntschools.net,Government,Arnhem,822,Very Remote,Community School,(08) 8987 9060,,,680,(08) 8987 9044,Galiwinku,"PMB 74, via Winnellie",NT
Shepherdson Pre School,Wakirana St,,,,,,,Pre School,(08) 8987 9060,,,0,(08) 8987 9044,Galiwinku,,
St Andrew Lutheran School,94 Leanyer Dr,http://home.austarnet.com.au/sals/,sals.admin@ntschools.net,Independant,Northern Suburbs,811,Provincial,Primary School,(08) 89275739,,,90,(08) 89451044,Leanyer,"PO Box 41110, Casuarina",NT
St Francis Assisi School,56 Challoner Cct,,admin@sfas.nt.catholic.edu.au,Catholic,Palmerston & Rural,836,Provincial,Primary School,(08) 89881514,,,103,(08) 89881212,Humpty Doo,"PO Box 921, Humpty Doo",NT
St Francis Xaviers School,,,admin@sfrx.nt.catholic.edu.au,Catholic,Palmerston & Rural,822,Very Remote,Community School,(08) 89782590,,,65,(08) 89782427,Nauiyu,"PMB 28, Daly River",NT
St Johns Catholic College,54 Salonika St,http://www.stjohns.nt.catholic.edu.au/,admin@stjohns.nt.catholic.edu.au,Catholic,Darwin City,820,Provincial,High School,(08) 89411732,,,452,(08) 89822222,The Gardens,"Mail Bag 13, Darwin",NT
St Joseph's School,Maluka Rd,http://www.schools.nt.edu.au/stjoseph/,admin@stjosephs.nt.catholic.edu.au,Catholic,Rivers,850,Remote,Community School,(08) 89723701,,,259,(08) 89723555,Katherine East,"PO Box 535, Katherine",NT
St Mary's Catholic School,3 Lindsay St,,admin@stmarysps.nt.catholic.edu.au,Catholic,Darwin City,801,Provincial,Primary School,(08) 89815286,,,302,(08) 89819796,Darwin City,"PO Box 389, Darwin",NT
St Pauls Catholic School,41 Francis St,http://www.stpaulsps.nt.catholic.edu.au/,admin@stpaulsps.nt.catholic.edu.au,Catholic,Darwin City,811,Provincial,Primary School,(08) 89480227,,,186,(08) 89851937,Rapid Creek,"PO Box 40344, Casuarina",NT
St Philip's College,2 Ulpaya Rd,http://www.stphilips.nt.edu.au/,info@stphilips.nt.edu.au,Independant,Central Storm,871,Remote,High School,(08) 89522822,,,601,(08) 89504511,Alice Springs,"PO Box 33, Alice Springs",NT
Star Centre - Alice Springs,,,,,,,,Open Learning Centre,,,,0,,,,
Stirling Station School,,,michelle.hundt@ntschools.net,Government,Central Storm,872,Very Remote,Group School,(08) 8956 9759,,,16,(08) 8956 9759,Wilora (Stirling Stn),"Stirling Station, via Alice Springs",NT
Stuart Park Pre School,8 Nudl St,,,,,,,Pre School,(08) 8941 1854,,,0,(08) 8981 6260,Stuart Park,,
Stuart Park Primary School,8 Nudl St,http://www.schools.nt.edu.au/stuartpk/,stuartpark.school@ntschools.net,Government,Darwin City,820,Provincial,Primary School,(08) 8941 1854,,,500,(08) 8981 6260,Stuart Park,"Nudl St, SStuart Park",NT
Taminmin High School,70 Challoner Cct,http://www.taminmin.nt.edu.au/,admin.taminhs@ntschools.net,Government,Palmerston & Rural,836,Provincial,High School,(08) 8988 2351,,,1030,(08) 8988 0000,Humpty Doo,"PO Box 21, Humpty Doo",NT
Tanami Group School,,,andrew.mirtschin@nt.gov.au,,,871,,Group School Office,(08) 89504259,,,0,(08) 89504230,Block A Alice Springs High School,PO Box 1420,
Tennant Creek High School,38 Stuart St,,meg.iles@ntschools.net,Government,Central Storm,861,Very Remote,High School,(08) 8962 3334,,,284,(08) 8962 2102,Tennant Creek,"PO Box 546, Tennant Creek",NT
Tennant Creek Pre School,31 Paterson St,,,,,,,Pre School,(08) 8962 4424,,,0,(08) 8962 4422,Tennant Creek,,
Tennant Creek Primary School,31 Paterson St,,jack.favilla@ntschools.net,Government,Central Storm,861,Very Remote,Primary School,(08) 8962 4424,,,386,(08) 8962 4422,Tennant Creek,"PO Box 506, Tennant Creek",NT
Teppa Hill Pre School,Kekwick Ave,,,,,,,Pre School,(08) 89534454,,,0,(08) 89521783,Alice Springs,,
Ti Tree School,26 Palmer St,,titree.school@ntschools.net,Government,Desert Oaks,872,Very Remote,Group School,(08) 8956 9999,,,76,(08) 8956 9743,Ti-Tree,"Ti Tree, via Alice Springs",NT
Timber Creek School,62 Wilson St,http://www.schools.nt.edu.au/kathgs/timberCreek/timberCreek.htm,,Government,Rivers,851,Very Remote,Group School,(08) 8975 0683,,,48,(08) 8975 0714,Timber Creek,"PMB 115, via Katherine",NT
Tipperary School,Daly River Rd,http://www.schools.nt.edu.au/tegs/tipper/tipp.htm,tipperary.school@ntschools.net,Government,Palmerston & Rural,822,Very Remote,Group School,(08) 8978 2786,,,13,(08) 8978 2765,Tipperary,"PMB 214, Winnellie",NT
Titjikala School,,,anne.stanley@ntschools.net,Government,Desert Oaks,872,Very Remote,Group School,(08) 8956 0914,,,34,(08) 8956 0927,Titjikala (Maryvale),"Maryvale Station, PMB 130, via Alice Springs",NT
Top End Group School,"1st Floor Ludmilla Primary School, 41 Bagot Rd",http://www.schools.nt.edu.au/tegs/,leonie.jones@nt.gov.au,,,801,,Group School Office,(08) 8999 3227,,,0,(08) 8999 3208,Ludmilla,"PO Box 4821, Darwin",NT
Ukaka Homeland Centre,,,ukaka@bigpond.com.au,Government,Desert Oaks,871,Very Remote,Group School,(08) 8956 7250,,,9,(08) 8956 7250,Ukaka,"PMB 115, via Alice Springs",NT
Umbakumba School,,,matt.watson@ntschools.net,Government,Arnhem,822,Very Remote,Group School,(08) 8987 6774,,,121,(08) 8987 6793,Umbakumba,"PO Box 698, Alyangula",NT
Urapunga School,Blyth St,http://www.schools.nt.edu.au/kathgs/urapunga/urapunga.htm,sue.hearnden@ntschools.net,Government,Rivers,852,Very Remote,Group School,(08) 8975 4998,,,50,(08) 8975 4645,Rittarangu (Urapunga),"PMB 12, via Katherine",NT
Utopia School,Family Outstation,,utopia.school@ntschools.net,Government,Desert Oaks,872,Very Remote,Group School,(08) 8956 9866,,,240,(08) 8956 9866,Ankerrapw (Utopia Homestead),PMB 18 Via Alice Springs,NT
Wagaman Pre School,35 Wagaman Tce,,,,,,,Pre School,(08) 8922 6000,,,0,(08) 8922 6011,Wagaman,,
Wagaman Primary School,35 Wagaman Tce,http://www.schools.nt.edu.au/wagaman/,wagaman.school@ntschools.net,Government,Northern Suburbs,811,Provincial,Primary School,(08) 8922 6000,,,253,(08) 8922 6011,Wagaman,"PO Box 40019, Casuarina",NT
Wallace Rockhole School,,http://www.schools.nt.edu.au/wallace/,wallace.rockhole@ntschools.net,Government,Desert Oaks,871,Very Remote,Group School,(08) 8956 7330,,,34,(08) 8956 7330,Wallace Rockhole,"PO Box 2256, Alice Springs",NT
Walungurru School,,http://www.schools.nt.edu.au/walungurru/,walungurru.school@ntschools.net,Government,Desert Oaks,872,Very Remote,Group School,,,,80,,Walungurru (Kintore),"PMB 14, via Alice Springs",NT
Wanguri Pre School,46 Gsell St,,,,,,,Pre School,(08) 8945 2193,,,0,(08) 8927 1655,Wanguri,,
Wanguri Primary School,46 Gsell St,http://www.schools.nt.edu.au/wangusch/,wanguri.prim@ntschools.net,Government,Northern Suburbs,811,Provincial,Primary School,(08) 8945 2193,,,292,(08) 8927 1655,Wanguri,"PO Box 40519, Casuarina",NT
Warrego School,Warrego Mine,,,Government,Central Storm,,Very Remote,Group School,,,,6,School Closed,Warrego,,NT
Warruwi School,,http://www.schools.nt.edu.au/tegs/warruwi/warr.htm,tim.morgan@ntschools.net,Government,Palmerston & Rural,822,Very Remote,Group School,(08) 8979 0215,,,116,(08) 8979 0222,Warruwi (Goulburn Is),"PMB 90, via Winnellie",NT
Watiyawanu School,,,m.turenne@ntschools.net,Government,Desert Oaks,872,Very Remote,Group School,(08) 8956 8555,,,40,(08) 8956 8555,Mt Liebig,"PMB 111, via Alice Springs",NT
Willowra Education Centre,,,willowra.school@ntschools.net,Government,Desert Oaks,872,Very Remote,Group School,(08) 8956 8408,,,39,(08) 8956 8408,Willowra,"PMB 102, via Alice Springs",NT
Woodroffe Pre School,55 Woodroffe Ave,,,,,,,Pre School,(08) 8932 2190,,,0,(08) 8932 3788,Woodroffe,,
Woodroffe Primary School,55 Woodroffe Ave,http://www.schools.nt.edu.au/woodroffe/,woodroffe.ps@ntschools.net,Government,Palmerston & Rural,831,Provincial,Primary School,(08) 8932 2190,,,549,(08) 8932 3788,Woodroffe,"PO Box 2021, Palmerston",NT
Woodykupildiya Catholic School,,,,Catholic,Palmerston & Rural,821,Remote,Community School,(08) 89782021,,,9,(08) 89782234,Woodykupildiya,"PMB 132, Winnellie",NT
Woolaning Homeland Christian College,,,admin@whcc.nt.edu.au,Catholic,,845,Remote,High School,89782985,,,49,89781000,,"PO Box 173, Batchelor",NT
Woolaning School,Litchfield Park Rd,http://www.schools.nt.edu.au/tegs/woolan/wool.htm,admin.woolasch@ntschools.net,Government,Palmerston & Rural,821,Remote,Group School,(08) 8978 2600,,,8,(08) 8978 2334,Litchfield Park,"PMB 159, Winnellie",NT
Woolianna School,Wooliana Rd,http://www.schools.nt.edu.au/tegs/wooliann/wlnn.htm,woolianna.school@ntschools.net,Government,Palmerston & Rural,821,Very Remote,Group School,(08) 8978 2629,,,47,(08) 8978 2984,Daly River,"PMB 194, Winnellie",NT
Wugularr School,Balanda St,http://www.schools.nt.edu.au/kathgs/wugularr/wugularr.htm,admin.wugulsch@ntschools.net,Government,Rivers,851,Very Remote,Group School,(08) 8975 4872,,,130,(08) 8975 4529,Beswick,"PMB 6, Katherine",NT
Wulagi Pre School,35 Wulagi Cres,,,,,,,Pre School,(08) 8999 8765,,,0,(08) 8999 8799,Wulagi,,
Wulagi School,35 Wulagi Cres,,wulagi.primary@ntschools.net,Government,Northern Suburbs,812,Provincial,Primary School,(08) 8999 8765,,,216,(08) 8999 8799,Wulagi,"Brolga St, Wulagi",NT
Wurankuwu Homeland Learning Centre,Community ID 868,,k.puruntatameri@latis.net.au,Catholic,Palmerston & Rural,822,Very Remote,Community School,(08) 89783922,,,0,(08) 89783986,Wurankuwu,"Nguiu, Bathurst Island",NT
Xavier CEC,Kerinavia Hwy,,admin@xaviercec.nt.catholic.edu.au,Catholic,Palmerston & Rural,822,Very Remote,Community School,(08) 89783914,,,59,(08) 89783970,Nguiu,"PMB 139, via Winnellie",NT
Yarralin School,,http://www.schools.nt.edu.au/kathgs/yarralin/yarralin.htm,,Government,Rivers,851,Very Remote,Group School,(08) 8975 0899,,,80,(08) 8975 0809,Yarralin,"PMB 34, via Katherine",NT
Yipirinya School,Lovegrove Dr,,yipirinya@yipirinya.com.au,Independant,Desert Oaks,871,Remote,Primary School,(08) 89523541,,,191,(08) 89525633,Alice Springs,"C/- Yipirinya School Council Inc, PO Box 2363, Alice Springs",NT
Yirara College,432 Stuart Hwy,http://www.yirara.nt.edu.au/,info@yirara.nt.edu.au,Independant,Desert Oaks,871,Remote,High School,(08) 89505666,,,240,(08) 89505644,Alice Springs,"PMB 51, Alice Springs",NT
Yirrkala CEC,Rankine Rd,,yirrkala.cec@ntschools.net,Government,Arnhem,881,Very Remote,Community School,(08) 8987 1725,,,189,(08) 8987 1988,Yirrkala,"PO Box 896, Nhulunbuy",NT
Yirrkala Homeland Centre,Galpu Rd,,yhs.admin@ntschools.net,Government,Arnhem,881,Very Remote,Special Purpose School,(08) 8987 1981,,,239,(08) 8987 1224,Yirrkala,"PO Box 896, Nhulunbuy",NT
Yirrkala Pre School,Rankine Rd,,,,,,,Pre School,(08) 8987 1725,,,0,(08) 8987 1988,Yirrkala,,
Yuendumu CEC,Conniston Rd,http://www.yuendumucec.com.au/,michelle.densley@ntschools.net,Government,Desert Oaks,870,Very Remote,Community School,(08) 8956 4001,,,147,(08) 8956 4011,Yuendumu,"Yuendumu, via Alice Springs",NT
Yuendumu Pre School,Conniston Rd,,,,,,,Pre School,(08) 8956 4001,,,0,(08) 8956 4011,Yuendumu,,
Yulara Primary School,21 Winmati St,,yulara.school@ntschools.net,Government,Desert Oaks,872,Very Remote,Group School,(08) 8956 2535,,,57,(08) 8956 2014,Yulara,"PO Box 146, Yulara",NT
